STARLINK-5307           
1 55658U 23021AG  26068.75231260 -.00000224  00000+0 -10970-4 0  9995
2 55658  70.0011 184.1828 0003547 269.3273  90.7479 14.98334081168803
ION SCV-022             
1 66682U 25276S   26068.74520243  .00001950  00000+0  17277-3 0  9990
2 66682  97.5376 142.9780 0004539 154.7099 205.4346 14.97347265 15192
